      2.10          N: GNSS NAV DATA                        RINEX VERSION / TYPE
fic2rin                                 12/20/2022 00:17:32 PGM / RUN BY / DATE
                                                            END OF HEADER
30 22 12 19 20  0  0.0 -.535102561116D-03  .682121026330D-12  .000000000000D+00
     .320000000000D+02  .515625000000D+01  .508449750402D-08  .284028174685D+01
     .288709998131D-06  .597568752710D-02  .113435089588D-04  .515366753387D+04
     .158400000000D+06 -.279396772385D-07  .200333552175D+01 -.126659870148D-06
     .935344339223D+00  .148406250000D+03 -.266595753048D+01 -.808283668259D-08
    -.424303388225D-09  .100000000000D+01  .224100000000D+04  .000000000000D+00
     .240000000000D+01  .000000000000D+00  .372529029846D-08  .320000000000D+02
     .151200000000D+06  .400000000000D+01
16 22 12 19 20  0  0.0 -.525857321918D-03  .682121026330D-12  .000000000000D+00
     .790000000000D+02  .114125000000D+03  .444839957941D-08  .399193751862D+00
     .623054802418D-05  .131830980536D-01  .680424273014D-05  .515376108932D+04
     .158400000000D+06 -.502914190292D-07  .312713132802D+01  .245869159698D-06
     .967178072997D+00  .250875000000D+03  .744692242552D+00 -.823534303509D-08
     .539308178636D-10  .100000000000D+01  .224100000000D+04  .000000000000D+00
     .240000000000D+01  .000000000000D+00 -.102445483208D-07  .790000000000D+02
     .151200000000D+06  .400000000000D+01
24 22 12 19 20  0  0.0  .820960849524D-05 -.172803993337D-10  .000000000000D+00
     .890000000000D+02 -.187187500000D+02  .511449875369D-08 -.241717868071D+01
    -.113435089588D-05  .135935767321D-01  .100489705801D-04  .515366649818D+04
     .158400000000D+06  .113621354103D-06  .190685036758D+01 -.139698386192D-06
     .933699631629D+00  .168562500000D+03  .871674027762D+00 -.806390732268D-08
    -.326085011321D-09  .100000000000D+01  .224100000000D+04  .000000000000D+00
     .340000000000D+01  .000000000000D+00  .279396772385D-08  .890000000000D+02
     .151200000000D+06  .400000000000D+01
27 22 12 19 20  0  0.0  .148874707520D-03 -.989075488178D-11  .000000000000D+00
     .800000000000D+02 -.393750000000D+01  .469555273148D-08 -.451812959252D+00
    -.152736902237D-06  .109599800780D-01  .188313424587D-05  .515365906525D+04
     .158400000000D+06  .372529029846D-07 -.220039183344D+01  .130385160446D-06
     .969698740828D+00  .344937500000D+03  .685117854480D+00 -.857214277844D-08
    -.152149194768D-09  .100000000000D+01  .224100000000D+04  .000000000000D+00
     .240000000000D+01  .000000000000D+00  .139698386192D-08  .800000000000D+02
     .151200000000D+06  .400000000000D+01
26 22 12 19 20  0  0.0  .238738488406D-03  .795807864051D-12  .000000000000D+00
     .740000000000D+02  .117218750000D+03  .505021036153D-08  .131976634893D+01
     .636279582977D-05  .766124704387D-02  .834278762341D-05  .515361667633D+04
     .158400000000D+06 -.242143869400D-07  .297566762777D+01  .135973095894D-06
     .935753710515D+00  .204906250000D+03  .414969490311D+00 -.839249243814D-08
    -.353586156854D-10  .100000000000D+01  .224100000000D+04  .000000000000D+00
     .240000000000D+01  .000000000000D+00  .698491930962D-08  .740000000000D+02
     .151200000000D+06  .400000000000D+01
19 22 12 19 20  0  0.0  .252719037235D-03  .511590769747D-11  .000000000000D+00
     .630000000000D+02 -.155312500000D+02  .451054502516D-08  .161752235303D+01
    -.940635800362D-06  .902200408746D-02  .140257179737D-05  .515374093819D+04
     .158400000000D+06  .186264514923D-06 -.209111728619D+01  .391155481339D-07
     .975212969146D+00  .357875000000D+03  .222399762732D+01 -.834284751309D-08
    -.247867467532D-09  .100000000000D+01  .224100000000D+04  .000000000000D+00
     .240000000000D+01  .000000000000D+00 -.153668224812D-07  .630000000000D+02
     .151200000000D+06  .400000000000D+01
13 22 12 19 20  0  0.0  .444802455604D-03  .659383658785D-11  .000000000000D+00
     .490000000000D+02 -.180000000000D+02  .480162857853D-08 -.953857724049D+00
    -.838190317154D-06  .673396559432D-02  .586546957493D-05  .515366062927D+04
     .158400000000D+06  .838190317154D-07  .108055263541D+01  .106170773506D-06
     .968931671436D+00  .271000000000D+03  .951514932428D+00 -.818426947910D-08
    -.778603860547D-10  .100000000000D+01  .224100000000D+04  .000000000000D+00
     .240000000000D+01  .000000000000D+00 -.116415321827D-07  .490000000000D+02
     .151200000000D+06  .400000000000D+01
25 22 12 19 20  0  0.0  .403565820307D-03  .352429196937D-11  .000000000000D+00
     .144000000000D+03  .115875000000D+03  .454054627483D-08  .210060141629D+01
     .585988163948D-05  .109781039646D-01  .880472362041D-05  .515357963371D+04
     .158400000000D+06 -.163912773132D-06  .302834141810D+01 -.257045030594D-06
     .954976865157D+00  .203875000000D+03  .100860299760D+01 -.800390482333D-08
     .140005831805D-09  .100000000000D+01  .224100000000D+04  .000000000000D+00
     .340000000000D+01  .000000000000D+00  .558793544769D-08  .144000000000D+03
     .151200000000D+06  .400000000000D+01
22 22 12 19 20  0  0.0  .388127751648D-03  .784439180279D-11  .000000000000D+00
     .760000000000D+02 -.152812500000D+02  .500270838288D-08 -.721688701323D+00
    -.627711415291D-06  .136276397388D-01  .596791505814D-05  .515375692177D+04
     .158400000000D+06 -.188127160072D-06  .102667115793D+01  .163912773132D-06
     .961761789970D+00  .268656250000D+03 -.184125689670D+01 -.844749472921D-08
    -.378587198248D-10  .100000000000D+01  .224100000000D+04  .000000000000D+00
     .240000000000D+01  .000000000000D+00 -.838190317154D-08  .760000000000D+02
     .151200000000D+06  .400000000000D+01
14 22 12 19 20  0  0.0 -.653127208352D-04  .659383658785D-11  .000000000000D+00
     .330000000000D+02  .131843750000D+03  .477841332581D-08  .221526432969D+01
     .682473182678D-05  .245981896296D-02  .776536762714D-05  .515366544151D+04
     .158400000000D+06 -.186264514923D-07  .307260638895D+01  .502914190292D-07
     .950748653012D+00  .224093750000D+03 -.306089095769D+01 -.827141596625D-08
     .184293390845D-09  .100000000000D+01  .224100000000D+04  .000000000000D+00
     .240000000000D+01  .000000000000D+00 -.791624188423D-08  .289000000000D+03
     .151200000000D+06  .400000000000D+01
18 22 12 19 20  0  0.0 -.654608011246D-04 -.147792889038D-10  .000000000000D+00
     .102000000000D+03 -.978125000000D+02  .401052419729D-08 -.256386848721D+01
    -.511296093464D-05  .296232255641D-02  .817887485027D-05  .515371272278D+04
     .158400000000D+06 -.391155481339D-07 -.113124321207D+01 -.558793544769D-08
     .972935805493D+00  .230093750000D+03 -.311299138507D+01 -.786068457192D-08
    -.130005415247D-09  .100000000000D+01  .224100000000D+04  .000000000000D+00
     .240000000000D+01  .000000000000D+00 -.838190317154D-08  .614000000000D+03
     .151200000000D+06  .400000000000D+01
23 22 12 19 20  0  0.0  .398140400648D-06  .682121026330D-12  .000000000000D+00
     .160000000000D+03 -.128125000000D+02  .410124226177D-08  .272801059479D+01
    -.556930899620D-06  .294274196494D-02  .989623367786D-05  .515364490700D+04
     .158400000000D+06 -.115483999252D-06 -.131861389425D+00 -.745058059692D-08
     .971942706481D+00  .192625000000D+03  .312226736240D+01 -.776996650744D-08
     .528236288876D-09  .100000000000D+01  .224100000000D+04  .000000000000D+00
     .240000000000D+01  .000000000000D+00 -.838190317154D-08  .928000000000D+03
     .151200000000D+06  .400000000000D+01
25 22 12 19 19 59 44.0  .403565820307D-03  .352429196937D-11  .000000000000D+00
     .000000000000D+00  .115875000000D+03  .454054627483D-08  .209826693550D+01
     .585988163948D-05  .109781078063D-01  .880472362041D-05  .515357963371D+04
     .158384000000D+06 -.163912773132D-06  .302834154537D+01 -.257045030594D-06
     .954976851991D+00  .203875000000D+03  .100860358862D+01 -.800390482333D-08
     .140005831805D-09  .100000000000D+01  .224100000000D+04  .000000000000D+00
     .240000000000D+01  .000000000000D+00  .558793544769D-08  .000000000000D+00
     .152280000000D+06  .400000000000D+01
8  22 12 19 19 59 44.0 -.994550064206D-04 -.181898940355D-11  .000000000000D+00
     .100000000000D+01 -.406250000000D+00  .483127267047D-08 -.444488453197D+00
    -.689178705215D-07  .799445901066D-02  .184401869774D-05  .515362943649D+04
     .158384000000D+06  .109896063805D-06 -.222240073667D+01  .186264514923D-08
     .960884321466D+00  .343125000000D+03  .177670628306D+00 -.859892960850D-08
    -.132148361653D-09  .100000000000D+01  .224100000000D+04  .000000000000D+00
     .240000000000D+01  .000000000000D+00  .512227416039D-08  .100000000000D+01
     .155730000000D+06  .400000000000D+01
24 22 12 19 19 59 44.0  .821007415652D-05 -.172803993337D-10  .000000000000D+00
     .800000000000D+01 -.187187500000D+02  .511449875369D-08 -.241951271677D+01
    -.113435089588D-05  .135935735889D-01  .100489705801D-04  .515366649818D+04
     .158384000000D+06  .113621354103D-06  .190685048901D+01 -.139698386192D-06
     .933699637481D+00  .168562500000D+03  .871674277921D+00 -.806390732268D-08
    -.326085011321D-09  .100000000000D+01  .224100000000D+04  .000000000000D+00
     .240000000000D+01  .000000000000D+00  .279396772385D-08  .800000000000D+01
     .155910000000D+06  .400000000000D+01
8  22 12 19 21 59 44.0 -.994680449367D-04 -.181898940355D-11  .000000000000D+00
     .200000000000D+01  .116250000000D+02  .482698677766D-08  .605650700514D+00
     .668689608574D-06  .799638545141D-02  .115297734737D-05  .515363320160D+04
     .165584000000D+06  .782310962677D-07 -.222246255666D+01  .614672899246D-07
     .960883385198D+00  .352093750000D+03  .177741031239D+00 -.858178603726D-08
    -.151792037033D-09  .100000000000D+01  .224100000000D+04  .000000000000D+00
     .240000000000D+01  .000000000000D+00  .512227416039D-08  .200000000000D+01
     .158400000000D+06  .400000000000D+01
